SAUDISAT 1C (SO-50)     
1 27607U 02058C   26200.79184977  .00000350  00000+0  59404-4 0  9992
2 27607  64.5521  28.1016 0074388 256.4358 102.8454 14.83103200269292
SAUDISAT 2              
1 28371U 04025F   26200.79359343  .00000086  00000+0  30373-4 0  9998
2 28371  98.5523 201.6205 0024359 193.7969 166.2565 14.56699612170499
SAUDISAT 3              
1 31118U 07012B   26200.83155939  .00000100  00000+0  24333-4 0  9996
2 31118  98.1469 151.2568 0015814 120.9620 239.3142 14.71441645 32545
PISAT                   
1 41784U 16059B   26200.49833654  .00000417  00000+0  78635-4 0  9991
2 41784  97.8193 199.5653 0030552 101.6970 258.7667 14.69033802524480
FLYING LAPTOP           
1 42831U 17042G   26200.84554201  .00002067  00000+0  16447-3 0  9990
2 42831  97.4834 355.1546 0019453  17.7534 342.4366 15.01331609491352
SALSAT                  
1 46495U 20068K   26200.45326485  .00003827  00000+0  13372-3 0  9999
2 46495  97.8865 205.4942 0009671 177.8105 182.3178 15.30206359320291
